ONEWEB-0317             
1 49103U 21075AE  23286.76652200  .00000013  00000+0 -72953-7 0  9998
2 49103  87.9069 185.0166 0001645  65.8782 294.2518 13.12444200106983
ONEWEB-0318             
1 49104U 21075AF  23286.94338620  .00000012  00000+0 -16958-5 0  9996
2 49104  87.9210 169.8523 0001729  89.8622 270.2708 13.18688326108376
ONEWEB-0319             
1 49105U 21075AG  23286.80038989  .00000075  00000+0  15972-3 0  9998
2 49105  87.9261 200.1131 0001623  97.9421 262.1895 13.17649260104890
ONEWEB-0323             
1 49106U 21075AH  23286.75697736 -.00000274  00000+0 -79651-3 0  9991
2 49106  87.9071 185.0072 0001620  82.4658 277.6654 13.12442475106343
ONEWEB-0329             
1 49107U 21075AJ  23286.80671460  .00000144  00000+0  33797-3 0  9999
2 49107  87.9264 200.1151 0001595  78.6734 281.4577 13.17649964104878
ONEWEB-0330             
1 49108U 21075AK  23286.80882138  .00000027  00000+0  35819-4 0  9994
2 49108  87.9251 200.1265 0001454  74.3123 285.8169 13.17649284104915
ONEWEB-0292             
1 49186U 21083A   23286.88139657 -.00000017  00000+0 -80212-4 0  9996
2 49186  87.9037 154.7109 0001701  79.4143 280.7178 13.13467912103923
ONEWEB-0303             
1 49187U 21083B   23286.93917137 -.00000273  00000+0 -72444-3 0  9991
2 49187  87.9209 169.8559 0001669  84.9717 275.1606 13.18685805101180
